OBJECT_NAME,OBJECT_ID,EPOCH,MEAN_MOTION,ECCENTRICITY,INCLINATION,RA_OF_ASC_NODE,ARG_OF_PERICENTER,MEAN_ANOMALY,EPHEMERIS_TYPE,CLASSIFICATION_TYPE,NORAD_CAT_ID,ELEMENT_SET_NO,REV_AT_EPOCH,BSTAR,MEAN_MOTION_DOT,MEAN_MOTION_DDOT
STARLINK-37738,2026-119W,2026-06-06T06:00:02.000160,15.89538267,.00011299,97.2835,182.4804,58.2309,311.8442,0,U,69316,999,229,-.92909254E-2,-.2666665E-1,.18449509E-2
STARLINK-37799,2026-119X,2026-06-06T06:00:02.000160,15.89652400,.00011176,97.2834,182.4816,60.0543,312.8542,0,U,69317,999,224,-.77382643E-2,-.2236933E-1,.13152228E-2
STARLINK-37802,2026-119Y,2026-06-06T06:00:02.000160,15.90191330,.00008636,97.2836,182.4830,74.5033,301.1396,0,U,69318,999,229,-.24937752E-2,-.747962E-2,.17194566E-3
STARLINK-37803,2026-119Z,2026-06-06T06:00:02.000160,15.90420724,.00008309,97.2837,182.4840,76.7536,301.1811,0,U,69319,999,224,-.25882107E-2,-.785127E-2,.18870232E-3
GUOWANG TEST OBJECT A,2026-120A,2026-06-06T02:21:55.132128,15.38777591,.00094863,54.9973,77.6770,290.5105,69.4905,0,U,69320,999,98,.32226064E-3,.12167E-3,0
GUOWANG TEST OBJECT B,2026-120B,2026-06-04T06:41:24.658368,15.39121370,.00091004,55.0006,85.8667,296.4175,63.5919,0,U,69321,999,70,.6938966E-3,.27005E-3,0
GUOWANG TEST OBJECT C,2026-120C,2026-06-06T02:18:04.210848,15.39487703,.00094876,54.9978,77.6685,304.4356,55.5776,0,U,69322,999,98,.58529446E-3,.22985E-3,0
GUOWANG TEST OBJECT D,2026-120D,2026-06-04T15:59:40.712352,15.39704502,.00080029,55.0029,84.1123,301.7889,58.2360,0,U,69323,999,76,.80800046E-3,.32137E-3,0
QIANFAN-163,2026-121A,2026-06-06T02:49:11.173152,13.60350819,.00190438,89.0163,301.6355,219.7126,140.2637,0,U,69325,999,65,.20706014E-4,.28E-6,0
QIANFAN-164,2026-121B,2026-06-06T02:48:25.234272,13.60504054,.00183963,89.0160,301.6350,221.2888,138.6878,0,U,69326,999,65,.15729475E-3,.13E-5,0
SZ-22 MODULE,2025-272C,2026-06-04T22:45:01.755936,15.59719201,.0008356,41.4810,36.4880,350.2706,9.7969,0,U,69328,999,141,.27599E-3,.2247E-3,0
